{
  "type": "FeatureCollection",
  "features": [
    {
      "type": "Feature",
      "properties": {
        "norad_id": 41890,
        "name": "CYGFM07",
        "group": "weather",
        "lat": 2.857483146812938,
        "lon": 81.79386411339607,
        "alt_km": 420.8589596043321,
        "timestamp": "2025-12-04T03:47:54.197561+00:00",
        "meta_object_name": "CYGFM07",
        "meta_object_id": "2016-078G",
        "meta_epoch": "2025-12-03T16:57:09.459072",
        "meta_mean_motion": 15.49431579,
        "meta_eccentricity": 0.0008992,
        "meta_inclination": 34.9472,
        "meta_ra_of_asc_node": 80.6555,
        "meta_arg_of_pericenter": 132.3245,
        "meta_mean_anomaly": 227.824,
        "meta_ephemeris_type": 0,
        "meta_classification_type": "U",
        "meta_norad_cat_id": 41890,
        "meta_element_set_no": 999,
        "meta_rev_at_epoch": 49855,
        "meta_bstar": 0.00053086,
        "meta_mean_motion_dot": 0.00030191,
        "meta_mean_motion_ddot": 0,
        "tle_line1": "1 41890U 16078G   25337.70635948  .00030191  00000+0  53086-3 0  9994",
        "tle_line2": "2 41890  34.9472  80.6555 0008992 132.3245 227.8240 15.49431579498554"
      },
      "geometry": {
        "type": "Point",
        "coordinates": [
          81.79386411339607,
          2.857483146812938
        ]
      }
    },
    {
      "type": "Feature",
      "properties": {
        "norad_id": 41891,
        "name": "CYGFM03",
        "group": "weather",
        "lat": -12.961739529930485,
        "lon": -81.14553083631682,
        "alt_km": 417.9391753050695,
        "timestamp": "2025-12-04T03:47:54.197571+00:00",
        "meta_object_name": "CYGFM03",
        "meta_object_id": "2016-078H",
        "meta_epoch": "2025-12-03T17:38:56.094144",
        "meta_mean_motion": 15.49338017,
        "meta_eccentricity": 0.0008344,
        "meta_inclination": 34.9426,
        "meta_ra_of_asc_node": 82.3772,
        "meta_arg_of_pericenter": 119.6239,
        "meta_mean_anomaly": 240.5315,
        "meta_ephemeris_type": 0,
        "meta_classification_type": "U",
        "meta_norad_cat_id": 41891,
        "meta_element_set_no": 999,
        "meta_rev_at_epoch": 49853,
        "meta_bstar": 0.00054312,
        "meta_mean_motion_dot": 0.00030783,
        "meta_mean_motion_ddot": 0,
        "tle_line1": "1 41891U 16078H   25337.73537146  .00030783  00000+0  54312-3 0  9999",
        "tle_line2": "2 41891  34.9426  82.3772 0008344 119.6239 240.5315 15.49338017498532"
      },
      "geometry": {
        "type": "Point",
        "coordinates": [
          -81.14553083631682,
          -12.961739529930485
        ]
      }
    },
    {
      "type": "Feature",
      "properties": {
        "norad_id": 43010,
        "name": "FENGYUN 3D",
        "group": "weather",
        "lat": 80.3863472372331,
        "lon": -166.52683444765364,
        "alt_km": 819.2474093931414,
        "timestamp": "2025-12-04T03:47:54.197582+00:00",
        "meta_object_name": "FENGYUN 3D",
        "meta_object_id": "2017-072A",
        "meta_epoch": "2025-12-03T20:35:38.987232",
        "meta_mean_motion": 14.19679577,
        "meta_eccentricity": 6.16e-05,
        "meta_inclination": 98.9881,
        "meta_ra_of_asc_node": 304.0359,
        "meta_arg_of_pericenter": 218.4169,
        "meta_mean_anomaly": 141.6963,
        "meta_ephemeris_type": 0,
        "meta_classification_type": "U",
        "meta_norad_cat_id": 43010,
        "meta_element_set_no": 999,
        "meta_rev_at_epoch": 41727,
        "meta_bstar": 0.00010443,
        "meta_mean_motion_dot": 1.75e-06,
        "meta_mean_motion_ddot": 0,
        "tle_line1": "1 43010U 17072A   25337.85809013  .00000175  00000+0  10443-3 0  9996",
        "tle_line2": "2 43010  98.9881 304.0359 0000616 218.4169 141.6963 14.19679577417278"
      },
      "geometry": {
        "type": "Point",
        "coordinates": [
          -166.52683444765364,
          80.3863472372331
        ]
      }
    },
    {
      "type": "Feature",
      "properties": {
        "norad_id": 43013,
        "name": "NOAA 20 (JPSS-1)",
        "group": "weather",
        "lat": -69.00581663338718,
        "lon": 70.86243580812292,
        "alt_km": 835.519970222449,
        "timestamp": "2025-12-04T03:47:54.197593+00:00",
        "meta_object_name": "NOAA 20 (JPSS-1)",
        "meta_object_id": "2017-073A",
        "meta_epoch": "2025-12-03T19:51:14.076864",
        "meta_mean_motion": 14.19521831,
        "meta_eccentricity": 0.0002064,
        "meta_inclination": 98.7586,
        "meta_ra_of_asc_node": 274.2221,
        "meta_arg_of_pericenter": 100.0404,
        "meta_mean_anomaly": 260.1005,
        "meta_ephemeris_type": 0,
        "meta_classification_type": "U",
        "meta_norad_cat_id": 43013,
        "meta_element_set_no": 999,
        "meta_rev_at_epoch": 41675,
        "meta_bstar": 8.5218e-05,
        "meta_mean_motion_dot": 1.36e-06,
        "meta_mean_motion_ddot": 0,
        "tle_line1": "1 43013U 17073A   25337.82724626  .00000136  00000+0  85218-4 0  9993",
        "tle_line2": "2 43013  98.7586 274.2221 0002064 100.0404 260.1005 14.19521831416759"
      },
      "geometry": {
        "type": "Point",
        "coordinates": [
          70.86243580812292,
          -69.00581663338718
        ]
      }
    },
    {
      "type": "Feature",
      "properties": {
        "norad_id": 43226,
        "name": "GOES 17",
        "group": "weather",
        "lat": -0.2995741369543532,
        "lon": 40.72121937284834,
        "alt_km": 35795.60165251036,
        "timestamp": "2025-12-04T03:47:54.197605+00:00",
        "meta_object_name": "GOES 17",
        "meta_object_id": "2018-022A",
        "meta_epoch": "2025-12-03T13:19:45.670080",
        "meta_mean_motion": 1.00271328,
        "meta_eccentricity": 0.0003423,
        "meta_inclination": 0.4342,
        "meta_ra_of_asc_node": 89.3189,
        "meta_arg_of_pericenter": 181.5531,
        "meta_mean_anomaly": 272.2117,
        "meta_ephemeris_type": 0,
        "meta_classification_type": "U",
        "meta_norad_cat_id": 43226,
        "meta_element_set_no": 999,
        "meta_rev_at_epoch": 2846,
        "meta_bstar": 0,
        "meta_mean_motion_dot": -1.65e-06,
        "meta_mean_motion_ddot": 0,
        "tle_line1": "1 43226U 18022A   25337.55538970 -.00000165  00000+0  00000+0 0  9993",
        "tle_line2": "2 43226   0.4342  89.3189 0003423 181.5531 272.2117  1.00271328 28462"
      },
      "geometry": {
        "type": "Point",
        "coordinates": [
          40.72121937284834,
          -0.2995741369543532
        ]
      }
    },
    {
      "type": "Feature",
      "properties": {
        "norad_id": 43491,
        "name": "FENGYUN 2H",
        "group": "weather",
        "lat": 1.9639106635161578,
        "lon": -150.43858175214186,
        "alt_km": 35775.78038241699,
        "timestamp": "2025-12-04T03:47:54.197617+00:00",
        "meta_object_name": "FENGYUN 2H",
        "meta_object_id": "2018-050A",
        "meta_epoch": "2025-12-03T20:13:37.295328",
        "meta_mean_motion": 1.00271361,
        "meta_eccentricity": 0.0002922,
        "meta_inclination": 2.5261,
        "meta_ra_of_asc_node": 81.4292,
        "meta_arg_of_pericenter": 162.7976,
        "meta_mean_anomaly": 211.4639,
        "meta_ephemeris_type": 0,
        "meta_classification_type": "U",
        "meta_norad_cat_id": 43491,
        "meta_element_set_no": 999,
        "meta_rev_at_epoch": 2748,
        "meta_bstar": 0,
        "meta_mean_motion_dot": -1.14e-06,
        "meta_mean_motion_ddot": 0,
        "tle_line1": "1 43491U 18050A   25337.84279277 -.00000114  00000+0  00000+0 0  9996",
        "tle_line2": "2 43491   2.5261  81.4292 0002922 162.7976 211.4639  1.00271361 27486"
      },
      "geometry": {
        "type": "Point",
        "coordinates": [
          -150.43858175214186,
          1.9639106635161578
        ]
      }
    },
    {
      "type": "Feature",
      "properties": {
        "norad_id": 43689,
        "name": "METOP-C",
        "group": "weather",
        "lat": -28.948826846419696,
        "lon": 40.91417256310927,
        "alt_km": 825.9792092373682,
        "timestamp": "2025-12-04T03:47:54.197635+00:00",
        "meta_object_name": "METOP-C",
        "meta_object_id": "2018-087A",
        "meta_epoch": "2025-12-03T17:48:00.637056",
        "meta_mean_motion": 14.21506294,
        "meta_eccentricity": 0.0001692,
        "meta_inclination": 98.6943,
        "meta_ra_of_asc_node": 35.6486,
        "meta_arg_of_pericenter": 56.979,
        "meta_mean_anomaly": 303.155,
        "meta_ephemeris_type": 0,
        "meta_classification_type": "U",
        "meta_norad_cat_id": 43689,
        "meta_element_set_no": 999,
        "meta_rev_at_epoch": 36706,
        "meta_bstar": 0.00012452,
        "meta_mean_motion_dot": 2.29e-06,
        "meta_mean_motion_ddot": 0,
        "tle_line1": "1 43689U 18087A   25337.74167404  .00000229  00000+0  12452-3 0  9996",
        "tle_line2": "2 43689  98.6943  35.6486 0001692  56.9790 303.1550 14.21506294367060"
      },
      "geometry": {
        "type": "Point",
        "coordinates": [
          40.91417256310927,
          -28.948826846419696
        ]
      }
    }
  ]
}